     3.04           N: GNSS NAV DATA    R: GLONASS          RINEX VERSION / TYPE
cnvtToRINEX 3.14.0  convertToRINEX OPR  20220416 101902 UTC PGM / RUN BY / DATE 
----------------------------------------------------------- COMMENT             
GLUT -0.465661287308D-09 0.000000000000D+00  61440 2205     TIME SYSTEM CORR    
    18                                                      LEAP SECONDS        
                                                            END OF HEADER       
R 4 2022 04 16 07 45 00 0.136964954436D-03 0.181898940355D-11 0.546660000000D+06
    -0.221029975586D+05 0.171882534027D+01 0.931322574615D-09 0.000000000000D+00
     0.869995117188D+02-0.329179763794D+00-0.279396772385D-08 0.600000000000D+01
     0.127725063477D+05 0.298365688324D+01-0.186264514923D-08 0.000000000000D+00
R 3 2022 04 16 07 45 00 0.550290569663D-04 0.909494701773D-12 0.546660000000D+06
    -0.852641943359D+04 0.295458793640D+01 0.000000000000D+00 0.000000000000D+00
    -0.864560888672D+04-0.815505981445D+00-0.931322574615D-09 0.500000000000D+01
     0.224892915039D+05 0.803566932678D+00-0.279396772385D-08 0.000000000000D+00
R10 2022 04 16 07 45 00-0.815447419882D-04 0.000000000000D+00 0.546660000000D+06
     0.217926464844D+04-0.314494132996D+00 0.372529029846D-08 0.000000000000D+00
     0.210678388672D+05 0.192993068695D+01 0.372529029846D-08-0.700000000000D+01
     0.142592958984D+05-0.279417037964D+01 0.000000000000D+00 0.000000000000D+00
R20 2022 04 16 07 45 00-0.687269493937D-04 0.000000000000D+00 0.546960000000D+06
     0.761079101563D+03-0.192827892303D+01 0.279396772385D-08 0.000000000000D+00
     0.142866767578D+05-0.216387176514D+01 0.279396772385D-08 0.200000000000D+01
     0.211092226563D+05 0.153868007660D+01-0.186264514923D-08 0.000000000000D+00
R19 2022 04 16 07 45 00-0.185559503734D-03-0.909494701773D-12 0.546930000000D+06
    -0.145077685547D+05-0.207378673553D+01 0.000000000000D+00 0.000000000000D+00
    -0.169914550781D+04-0.198614883423D+01-0.186264514923D-08 0.300000000000D+01
     0.209095908203D+05-0.159962844849D+01-0.279396772385D-08 0.000000000000D+00
R21 2022 04 16 07 45 00-0.293714925647D-03-0.272848410532D-11 0.546960000000D+06
     0.157628017578D+05-0.417989730835D+00 0.279396772385D-08 0.000000000000D+00
     0.191704067383D+05-0.735682487488D+00 0.558793544769D-08 0.400000000000D+01
     0.593027685547D+04 0.348527622223D+01 0.000000000000D+00 0.000000000000D+00
R 4 2022 04 16 07 45 00 0.136964954436D-03 0.181898940355D-11 0.546960000000D+06
    -0.221029975586D+05 0.171882534027D+01 0.931322574615D-09 0.000000000000D+00
     0.869995117188D+02-0.329179763794D+00-0.279396772385D-08 0.600000000000D+01
     0.127725063477D+05 0.298365688324D+01-0.186264514923D-08 0.000000000000D+00
R 3 2022 04 16 07 45 00 0.550290569663D-04 0.909494701773D-12 0.546960000000D+06
    -0.852641943359D+04 0.295458793640D+01 0.000000000000D+00 0.000000000000D+00
    -0.864560888672D+04-0.815505981445D+00-0.931322574615D-09 0.500000000000D+01
     0.224892915039D+05 0.803566932678D+00-0.279396772385D-08 0.000000000000D+00
R10 2022 04 16 07 45 00-0.815447419882D-04 0.000000000000D+00 0.546960000000D+06
     0.217926464844D+04-0.314494132996D+00 0.372529029846D-08 0.000000000000D+00
     0.210678388672D+05 0.192993068695D+01 0.372529029846D-08-0.700000000000D+01
     0.142592958984D+05-0.279417037964D+01 0.000000000000D+00 0.000000000000D+00
R20 2022 04 16 08 15 00-0.687278807163D-04 0.000000000000D+00 0.547200000000D+06
    -0.319903955078D+04-0.244251823425D+01 0.186264514923D-08 0.000000000000D+00
     0.104972177734D+05-0.200267887115D+01 0.931322574615D-09 0.200000000000D+01
     0.230266650391D+05 0.578117370605D+00-0.186264514923D-08 0.000000000000D+00
R10 2022 04 16 08 15 00-0.815447419882D-04 0.000000000000D+00 0.547200000000D+06
     0.195396679688D+04 0.336370468140D-01 0.372529029846D-08 0.000000000000D+00
     0.239176450195D+05 0.120543003082D+01 0.279396772385D-08-0.700000000000D+01
     0.874505078125D+04-0.329304409027D+01 0.000000000000D+00 0.000000000000D+00
R19 2022 04 16 08 15 00-0.185561366379D-03-0.909494701773D-12 0.547200000000D+06
    -0.181833452148D+05-0.196112728119D+01 0.000000000000D+00 0.000000000000D+00
    -0.470260888672D+04-0.133909416199D+01-0.279396772385D-08 0.300000000000D+01
     0.172590742188D+05-0.243016052246D+01-0.279396772385D-08 0.000000000000D+00
R21 2022 04 16 08 15 00-0.293720513582D-03-0.272848410532D-11 0.547200000000D+06
     0.143334047852D+05-0.118016815186D+01 0.279396772385D-08 0.000000000000D+00
     0.174392993164D+05-0.114461708069D+01 0.465661287308D-08 0.400000000000D+01
     0.118937363281D+05 0.309778976440D+01 0.000000000000D+00 0.000000000000D+00
R 4 2022 04 16 08 15 00 0.136969611049D-03 0.181898940355D-11 0.547200000000D+06
    -0.184919028320D+05 0.225057029724D+01 0.000000000000D+00 0.000000000000D+00
    -0.953020507813D+03-0.843913078308D+00-0.279396772385D-08 0.600000000000D+01
     0.175813642578D+05 0.232499885559D+01-0.279396772385D-08 0.000000000000D+00
R 4 2022 04 16 08 15 00 0.136969611049D-03 0.181898940355D-11 0.547200000000D+06
    -0.184919028320D+05 0.225057029724D+01 0.000000000000D+00 0.000000000000D+00
    -0.953020507813D+03-0.843913078308D+00-0.279396772385D-08 0.600000000000D+01
     0.175813642578D+05 0.232499885559D+01-0.279396772385D-08 0.000000000000D+00
R 3 2022 04 16 08 15 00 0.550318509340D-04 0.909494701773D-12 0.547200000000D+06
    -0.323518310547D+04 0.287516212463D+01-0.931322574615D-09 0.000000000000D+00
    -0.105344223633D+05-0.126909732819D+01 0.000000000000D+00 0.500000000000D+01
     0.230527568359D+05-0.181663513184D+00-0.279396772385D-08 0.000000000000D+00
R10 2022 04 16 08 15 00-0.815447419882D-04 0.000000000000D+00 0.547200000000D+06
     0.195396679688D+04 0.336370468140D-01 0.372529029846D-08 0.000000000000D+00
     0.239176450195D+05 0.120543003082D+01 0.279396772385D-08-0.700000000000D+01
     0.874505078125D+04-0.329304409027D+01 0.000000000000D+00 0.000000000000D+00
R 3 2022 04 16 08 15 00 0.550318509340D-04 0.909494701773D-12 0.547200000000D+06
    -0.323518310547D+04 0.287516212463D+01-0.931322574615D-09 0.000000000000D+00
    -0.105344223633D+05-0.126909732819D+01 0.000000000000D+00 0.500000000000D+01
     0.230527568359D+05-0.181663513184D+00-0.279396772385D-08 0.000000000000D+00
R20 2022 04 16 08 15 00-0.687278807163D-04 0.000000000000D+00 0.547260000000D+06
    -0.319903955078D+04-0.244251823425D+01 0.186264514923D-08 0.000000000000D+00
     0.104972177734D+05-0.200267887115D+01 0.931322574615D-09 0.200000000000D+01
     0.230266650391D+05 0.578117370605D+00-0.186264514923D-08 0.000000000000D+00
R19 2022 04 16 08 15 00-0.185561366379D-03-0.909494701773D-12 0.547200000000D+06
    -0.181833452148D+05-0.196112728119D+01 0.000000000000D+00 0.000000000000D+00
    -0.470260888672D+04-0.133909416199D+01-0.279396772385D-08 0.300000000000D+01
     0.172590742188D+05-0.243016052246D+01-0.279396772385D-08 0.000000000000D+00
R21 2022 04 16 08 15 00-0.293720513582D-03-0.272848410532D-11 0.547260000000D+06
     0.143334047852D+05-0.118016815186D+01 0.279396772385D-08 0.000000000000D+00
     0.174392993164D+05-0.114461708069D+01 0.465661287308D-08 0.400000000000D+01
     0.118937363281D+05 0.309778976440D+01 0.000000000000D+00 0.000000000000D+00
R 4 2022 04 16 08 15 00 0.136969611049D-03 0.181898940355D-11 0.547260000000D+06
    -0.184919028320D+05 0.225057029724D+01 0.000000000000D+00 0.000000000000D+00
    -0.953020507813D+03-0.843913078308D+00-0.279396772385D-08 0.600000000000D+01
     0.175813642578D+05 0.232499885559D+01-0.279396772385D-08 0.000000000000D+00
R 3 2022 04 16 08 15 00 0.550318509340D-04 0.909494701773D-12 0.547260000000D+06
    -0.323518310547D+04 0.287516212463D+01-0.931322574615D-09 0.000000000000D+00
    -0.105344223633D+05-0.126909732819D+01 0.000000000000D+00 0.500000000000D+01
     0.230527568359D+05-0.181663513184D+00-0.279396772385D-08 0.000000000000D+00
R10 2022 04 16 08 15 00-0.815447419882D-04 0.000000000000D+00 0.547260000000D+06
     0.195396679688D+04 0.336370468140D-01 0.372529029846D-08 0.000000000000D+00
     0.239176450195D+05 0.120543003082D+01 0.279396772385D-08-0.700000000000D+01
     0.874505078125D+04-0.329304409027D+01 0.000000000000D+00 0.000000000000D+00
R12 2022 04 16 08 15 00 0.179465860128D-04 0.000000000000D+00 0.547440000000D+06
     0.109973515625D+05-0.360208511353D+00-0.931322574615D-09 0.000000000000D+00
    -0.100713295898D+05 0.280845832825D+01 0.186264514923D-08-0.100000000000D+01
     0.207111718750D+05 0.156024456024D+01-0.279396772385D-08 0.000000000000D+00
R20 2022 04 16 08 15 00-0.687278807163D-04 0.000000000000D+00 0.547560000000D+06
    -0.319903955078D+04-0.244251823425D+01 0.186264514923D-08 0.000000000000D+00
     0.104972177734D+05-0.200267887115D+01 0.931322574615D-09 0.200000000000D+01
     0.230266650391D+05 0.578117370605D+00-0.186264514923D-08 0.000000000000D+00
R19 2022 04 16 08 15 00-0.185561366379D-03-0.909494701773D-12 0.547500000000D+06
    -0.181833452148D+05-0.196112728119D+01 0.000000000000D+00 0.000000000000D+00
    -0.470260888672D+04-0.133909416199D+01-0.279396772385D-08 0.300000000000D+01
     0.172590742188D+05-0.243016052246D+01-0.279396772385D-08 0.000000000000D+00
R21 2022 04 16 08 15 00-0.293720513582D-03-0.272848410532D-11 0.547560000000D+06
     0.143334047852D+05-0.118016815186D+01 0.279396772385D-08 0.000000000000D+00
     0.174392993164D+05-0.114461708069D+01 0.465661287308D-08 0.400000000000D+01
     0.118937363281D+05 0.309778976440D+01 0.000000000000D+00 0.000000000000D+00
